[
  {
    "OBJECT_NAME": "STARLINK-1183",
    "OBJECT_ID": "20006AW",
    "EPOCH": "2025-11-11T06:29:04.060896",
    "MEAN_MOTION": 15.06412115,
    "ECCENTRICITY": 0.0002288,
    "INCLINATION": 53.0558,
    "RA_OF_ASC_NODE": 58.2247,
    "ARG_OF_PERICENTER": 79.1609,
    "MEAN_ANOMALY": 280.9637,
    "EPHEMERIS_TYPE": 0,
    "CLASSIFICATION_TYPE": "U",
    "NORAD_CAT_ID": 45088,
    "ELEMENT_SET_NO": 999,
    "REV_AT_EPOCH": 31917,
    "BSTAR": 0.00020683000000000002,
    "MEAN_MOTION_DOT": 2.801e-05,
    "MEAN_MOTION_DDOT": 0.0,
    "TLE_LINE1": "1 45088U 20006AW  25315.27018589  .00002801  00000+0  20683-3 0  9991",
    "TLE_LINE2": "2 45088  53.0558  58.2247 0002288  79.1609 280.9637 15.06412115319175",
    "COMMENT": "Grouped by shell and plane from TLE"
  },
  {
    "OBJECT_NAME": "STARLINK-1184",
    "OBJECT_ID": "20006BG",
    "EPOCH": "2025-11-11T06:50:18.924864",
    "MEAN_MOTION": 15.06398424,
    "ECCENTRICITY": 0.0001464,
    "INCLINATION": 53.0595,
    "RA_OF_ASC_NODE": 58.1601,
    "ARG_OF_PERICENTER": 93.7654,
    "MEAN_ANOMALY": 266.3503,
    "EPHEMERIS_TYPE": 0,
    "CLASSIFICATION_TYPE": "U",
    "NORAD_CAT_ID": 45098,
    "ELEMENT_SET_NO": 999,
    "REV_AT_EPOCH": 31917,
    "BSTAR": 0.00019793,
    "MEAN_MOTION_DOT": 2.668e-05,
    "MEAN_MOTION_DDOT": 0.0,
    "TLE_LINE1": "1 45098U 20006BG  25315.28494126  .00002668  00000+0  19793-3 0  9999",
    "TLE_LINE2": "2 45098  53.0595  58.1601 0001464  93.7654 266.3503 15.06398424319173",
    "COMMENT": "Grouped by shell and plane from TLE"
  },
  {
    "OBJECT_NAME": "STARLINK-1193",
    "OBJECT_ID": "20006BJ",
    "EPOCH": "2025-11-11T00:22:50.853504",
    "MEAN_MOTION": 15.06399489,
    "ECCENTRICITY": 0.0001353,
    "INCLINATION": 53.0537,
    "RA_OF_ASC_NODE": 59.3625,
    "ARG_OF_PERICENTER": 90.887,
    "MEAN_ANOMALY": 269.2274,
    "EPHEMERIS_TYPE": 0,
    "CLASSIFICATION_TYPE": "U",
    "NORAD_CAT_ID": 45100,
    "ELEMENT_SET_NO": 999,
    "REV_AT_EPOCH": 31913,
    "BSTAR": 0.00010136,
    "MEAN_MOTION_DOT": 1.229e-05,
    "MEAN_MOTION_DDOT": 0.0,
    "TLE_LINE1": "1 45100U 20006BJ  25315.01586636  .00001229  00000+0  10136-3 0  9996",
    "TLE_LINE2": "2 45100  53.0537  59.3625 0001353  90.8870 269.2274 15.06399489319132",
    "COMMENT": "Grouped by shell and plane from TLE"
  },
  {
    "OBJECT_NAME": "STARLINK-1465",
    "OBJECT_ID": "20038B",
    "EPOCH": "2025-11-10T14:56:14.614368",
    "MEAN_MOTION": 15.06410283,
    "ECCENTRICITY": 0.0001407,
    "INCLINATION": 53.0556,
    "RA_OF_ASC_NODE": 51.1309,
    "ARG_OF_PERICENTER": 76.2329,
    "MEAN_ANOMALY": 283.8816,
    "EPHEMERIS_TYPE": 0,
    "CLASSIFICATION_TYPE": "U",
    "NORAD_CAT_ID": 45731,
    "ELEMENT_SET_NO": 999,
    "REV_AT_EPOCH": 29824,
    "BSTAR": 0.00016382,
    "MEAN_MOTION_DOT": 2.16e-05,
    "MEAN_MOTION_DDOT": 0.0,
    "TLE_LINE1": "1 45731U 20038B   25314.62239137  .00002160  00000+0  16382-3 0  9992",
    "TLE_LINE2": "2 45731  53.0556  51.1309 0001407  76.2329 283.8816 15.06410283298247",
    "COMMENT": "Grouped by shell and plane from TLE"
  },
  {
    "OBJECT_NAME": "STARLINK-1718",
    "OBJECT_ID": "20073E",
    "EPOCH": "2025-11-11T06:53:37.573152",
    "MEAN_MOTION": 15.06406236,
    "ECCENTRICITY": 0.0001667,
    "INCLINATION": 53.0541,
    "RA_OF_ASC_NODE": 53.1458,
    "ARG_OF_PERICENTER": 96.187,
    "MEAN_ANOMALY": 263.9309,
    "EPHEMERIS_TYPE": 0,
    "CLASSIFICATION_TYPE": "U",
    "NORAD_CAT_ID": 46674,
    "ELEMENT_SET_NO": 999,
    "REV_AT_EPOCH": 27928,
    "BSTAR": 0.00011908,
    "MEAN_MOTION_DOT": 1.493e-05,
    "MEAN_MOTION_DDOT": 0.0,
    "TLE_LINE1": "1 46674U 20073E   25315.28724043  .00001493  00000+0  11908-3 0  9993",
    "TLE_LINE2": "2 46674  53.0541  53.1458 0001667  96.1870 263.9309 15.06406236279287",
    "COMMENT": "Grouped by shell and plane from TLE"
  },
  {
    "OBJECT_NAME": "STARLINK-1807",
    "OBJECT_ID": "20073AN",
    "EPOCH": "2025-11-11T06:15:31.687488",
    "MEAN_MOTION": 15.14906129,
    "ECCENTRICITY": 0.000325,
    "INCLINATION": 53.0494,
    "RA_OF_ASC_NODE": 50.2979,
    "ARG_OF_PERICENTER": 185.1143,
    "MEAN_ANOMALY": 174.9817,
    "EPHEMERIS_TYPE": 0,
    "CLASSIFICATION_TYPE": "U",
    "NORAD_CAT_ID": 46706,
    "ELEMENT_SET_NO": 999,
    "REV_AT_EPOCH": 27932,
    "BSTAR": 0.0034782999999999997,
    "MEAN_MOTION_DOT": 0.00065845,
    "MEAN_MOTION_DDOT": 0.0,
    "TLE_LINE1": "1 46706U 20073AN  25315.26078342  .00065845  00000+0  34783-2 0  9997",
    "TLE_LINE2": "2 46706  53.0494  50.2979 0003250 185.1143 174.9817 15.14906129279323",
    "COMMENT": "Grouped by shell and plane from TLE"
  },
  {
    "OBJECT_NAME": "STARLINK-1817",
    "OBJECT_ID": "20073AX",
    "EPOCH": "2025-11-11T07:09:32.678496",
    "MEAN_MOTION": 15.06357098,
    "ECCENTRICITY": 6.36e-05,
    "INCLINATION": 53.0573,
    "RA_OF_ASC_NODE": 53.0973,
    "ARG_OF_PERICENTER": 92.0627,
    "MEAN_ANOMALY": 268.0435,
    "EPHEMERIS_TYPE": 0,
    "CLASSIFICATION_TYPE": "U",
    "NORAD_CAT_ID": 46715,
    "ELEMENT_SET_NO": 999,
    "REV_AT_EPOCH": 27928,
    "BSTAR": 0.00062449,
    "MEAN_MOTION_DOT": 9.022e-05,
    "MEAN_MOTION_DDOT": 0.0,
    "TLE_LINE1": "1 46715U 20073AX  25315.29829489  .00009022  00000+0  62449-3 0  9992",
    "TLE_LINE2": "2 46715  53.0573  53.0973 0000636  92.0627 268.0435 15.06357098279286",
    "COMMENT": "Grouped by shell and plane from TLE"
  },
  {
    "OBJECT_NAME": "STARLINK-1821",
    "OBJECT_ID": "20073BA",
    "EPOCH": "2025-11-11T06:57:50.153184",
    "MEAN_MOTION": 15.23516962,
    "ECCENTRICITY": 0.0002367,
    "INCLINATION": 53.0541,
    "RA_OF_ASC_NODE": 57.6303,
    "ARG_OF_PERICENTER": 132.1532,
    "MEAN_ANOMALY": 227.9666,
    "EPHEMERIS_TYPE": 0,
    "CLASSIFICATION_TYPE": "U",
    "NORAD_CAT_ID": 46718,
    "ELEMENT_SET_NO": 999,
    "REV_AT_EPOCH": 27922,
    "BSTAR": 0.0024131,
    "MEAN_MOTION_DOT": 0.00058498,
    "MEAN_MOTION_DDOT": 0.0,
    "TLE_LINE1": "1 46718U 20073BA  25315.29016381  .00058498  00000+0  24131-2 0  9990",
    "TLE_LINE2": "2 46718  53.0541  57.6303 0002367 132.1532 227.9666 15.23516962279225",
    "COMMENT": "Grouped by shell and plane from TLE"
  },
  {
    "OBJECT_NAME": "STARLINK-2387",
    "OBJECT_ID": "21018V",
    "EPOCH": "2025-11-11T06:07:51.102048",
    "MEAN_MOTION": 15.06395936,
    "ECCENTRICITY": 0.0001722,
    "INCLINATION": 53.0552,
    "RA_OF_ASC_NODE": 58.2973,
    "ARG_OF_PERICENTER": 91.7053,
    "MEAN_ANOMALY": 268.4133,
    "EPHEMERIS_TYPE": 0,
    "CLASSIFICATION_TYPE": "U",
    "NORAD_CAT_ID": 47806,
    "ELEMENT_SET_NO": 999,
    "REV_AT_EPOCH": 25887,
    "BSTAR": 0.00015955,
    "MEAN_MOTION_DOT": 2.095e-05,
    "MEAN_MOTION_DDOT": 0.0,
    "TLE_LINE1": "1 47806U 21018V   25315.25545257  .00002095  00000+0  15955-3 0  9991",
    "TLE_LINE2": "2 47806  53.0552  58.2973 0001722  91.7053 268.4133 15.06395936258872",
    "COMMENT": "Grouped by shell and plane from TLE"
  },
  {
    "OBJECT_NAME": "STARLINK-2389",
    "OBJECT_ID": "21018X",
    "EPOCH": "2025-11-11T06:34:22.981440",
    "MEAN_MOTION": 15.06406789,
    "ECCENTRICITY": 0.0002105,
    "INCLINATION": 53.0557,
    "RA_OF_ASC_NODE": 58.2054,
    "ARG_OF_PERICENTER": 91.3802,
    "MEAN_ANOMALY": 268.7428,
    "EPHEMERIS_TYPE": 0,
    "CLASSIFICATION_TYPE": "U",
    "NORAD_CAT_ID": 47808,
    "ELEMENT_SET_NO": 999,
    "REV_AT_EPOCH": 25887,
    "BSTAR": 0.00018037,
    "MEAN_MOTION_DOT": 2.406e-05,
    "MEAN_MOTION_DDOT": 0.0,
    "TLE_LINE1": "1 47808U 21018X   25315.27387710  .00002406  00000+0  18037-3 0  9993",
    "TLE_LINE2": "2 47808  53.0557  58.2054 0002105  91.3802 268.7428 15.06406789258872",
    "COMMENT": "Grouped by shell and plane from TLE"
  },
  {
    "OBJECT_NAME": "STARLINK-2396",
    "OBJECT_ID": "21018AE",
    "EPOCH": "2025-11-11T06:55:36.763680",
    "MEAN_MOTION": 15.06398653,
    "ECCENTRICITY": 6.16e-05,
    "INCLINATION": 53.0622,
    "RA_OF_ASC_NODE": 58.1419,
    "ARG_OF_PERICENTER": 86.9611,
    "MEAN_ANOMALY": 273.1449,
    "EPHEMERIS_TYPE": 0,
    "CLASSIFICATION_TYPE": "U",
    "NORAD_CAT_ID": 47815,
    "ELEMENT_SET_NO": 999,
    "REV_AT_EPOCH": 25881,
    "BSTAR": 9.144e-05,
    "MEAN_MOTION_DOT": 1.081e-05,
    "MEAN_MOTION_DDOT": 0.0,
    "TLE_LINE1": "1 47815U 21018AE  25315.28861995  .00001081  00000+0  91440-4 0  9992",
    "TLE_LINE2": "2 47815  53.0622  58.1419 0000616  86.9611 273.1449 15.06398653258817",
    "COMMENT": "Grouped by shell and plane from TLE"
  },
  {
    "OBJECT_NAME": "STARLINK-2413",
    "OBJECT_ID": "21018AS",
    "EPOCH": "2025-11-11T06:58:58.226016",
    "MEAN_MOTION": 15.06404929,
    "ECCENTRICITY": 0.0001313,
    "INCLINATION": 53.054,
    "RA_OF_ASC_NODE": 53.3695,
    "ARG_OF_PERICENTER": 89.7452,
    "MEAN_ANOMALY": 270.3688,
    "EPHEMERIS_TYPE": 0,
    "CLASSIFICATION_TYPE": "U",
    "NORAD_CAT_ID": 47827,
    "ELEMENT_SET_NO": 999,
    "REV_AT_EPOCH": 25894,
    "BSTAR": 2.9265000000000003e-06,
    "MEAN_MOTION_DOT": -2.38e-06,
    "MEAN_MOTION_DDOT": 0.0,
    "TLE_LINE1": "1 47827U 21018AS  25315.29095169 -.00000238  00000+0  29265-5 0  9999",
    "TLE_LINE2": "2 47827  53.0540  53.3695 0001313  89.7452 270.3688 15.06404929258943",
    "COMMENT": "Grouped by shell and plane from TLE"
  },
  {
    "OBJECT_NAME": "STARLINK-2270",
    "OBJECT_ID": "21024Z",
    "EPOCH": "2025-11-11T07:20:12.501600",
    "MEAN_MOTION": 15.06411304,
    "ECCENTRICITY": 7e-05,
    "INCLINATION": 53.0552,
    "RA_OF_ASC_NODE": 53.2663,
    "ARG_OF_PERICENTER": 50.9584,
    "MEAN_ANOMALY": 309.1468,
    "EPHEMERIS_TYPE": 0,
    "CLASSIFICATION_TYPE": "U",
    "NORAD_CAT_ID": 48000,
    "ELEMENT_SET_NO": 999,
    "REV_AT_EPOCH": 25799,
    "BSTAR": 0.0005276699999999999,
    "MEAN_MOTION_DOT": 7.589e-05,
    "MEAN_MOTION_DDOT": 0.0,
    "TLE_LINE1": "1 48000U 21024Z   25315.30570025  .00007589  00000+0  52767-3 0  9997",
    "TLE_LINE2": "2 48000  53.0552  53.2663 0000700  50.9584 309.1468 15.06411304257995",
    "COMMENT": "Grouped by shell and plane from TLE"
  }
]